GLOBALSTAR M084         
1 38040U 11080A   25016.76965429 -.00000115  00000+0 -61486-4 0  9994
2 38040  51.9994 149.4420 0001237  99.5547  48.5626 12.62273429603547
GLOBALSTAR M080         
1 38041U 11080B   25016.82672965 -.00000120  00000+0 -88665-4 0  9996
2 38041  52.0046 150.8258 0001271  85.0972  80.0430 12.62260403603679
GLOBALSTAR M082         
1 38042U 11080C   25016.67828978 -.00000081  00000+0  12654-3 0  9996
2 38042  52.0076 106.7053 0000826 155.4787 356.6158 12.62272042604365
GLOBALSTAR M092         
1 38043U 11080D   25016.97114358 -.00000111  00000+0 -41628-4 0  9999
2 38043  52.0055 196.1824 0001152  94.7933  68.7386 12.62272116603065
GLOBALSTAR M090         
1 38044U 11080E   25016.70782885 -.00000080  00000+0  13334-3 0  9993
2 38044  51.9886 100.6193 0000626 136.2204  29.8044 12.62265659604483
GLOBALSTAR M086         
1 38045U 11080F   25016.65457206 -.00000083  00000+0  11494-3 0  9992
2 38045  51.9900 101.3203 0000609  37.8794 126.4712 12.62265644604426
GLOBALSTAR M097         
1 39072U 13005A   25017.35781440 -.00000092  00000+0  63227-4 0  9992
2 39072  52.0065  13.5738 0000161  37.0222 323.0655 12.62269028551847
GLOBALSTAR M093         
1 39073U 13005B   25016.93486305 -.00000097  00000+0  36999-4 0  9999
2 39073  51.9831   8.4019 0000184   4.5563 355.5305 12.62271912551661
